SL-3 R/B                
1 13154U 82039B   25308.85216337  .00002416  00000+0  14867-3 0  9990
2 13154  81.1823 359.6562 0032662  15.5576 344.6644 15.09213356362808
SL-3 R/B                
1 13403U 82079B   25308.84454442  .00005688  00000+0  23890-3 0  9991
2 13403  81.1473 340.3165 0024779 225.4547 134.4662 15.22991587358682
SL-14 R/B               
1 13553U 82092B   25308.84495917  .00000714  00000+0  77731-4 0  9993
2 13553  82.5668 258.1496 0020442   0.2930  29.6678 14.86486840310387
SL-3 R/B                
1 13819U 83010B   25308.82932459  .00012056  00000+0  27967-3 0  9991
2 13819  81.1029 154.8452 0018316 119.2493 241.0583 15.42079591338675
SL-3 R/B                
1 14208U 83075B   25308.79692459  .00011498  00000+0  33825-3 0  9993
2 14208  97.6095 304.0388 0021948 320.2434  39.7199 15.35013564310972
COSMOS 1536             
1 14699U 84013A   25308.28479463  .00009040  00000+0  39543-3 0  9995
2 14699  82.5471 232.2753 0015813  11.9514 348.2094 15.21809418253538
SL-14 R/B               
1 14820U 84027B   25308.57385904  .00000550  00000+0  60253-4 0  9994
2 14820  82.5438   2.3463 0018780  32.2856 327.9505 14.85814957229056
SL-8 R/B                
1 15483U 85006B   25308.74933139  .00000281  00000+0  10214-3 0  9998
2 15483  74.0430 131.0290 0017483  75.9777 296.0781 14.37685686136076
SL-12 R/B(2)            
1 15772U 85042D   25308.85040398  .00000137  00000+0  83204-4 0  9997
2 15772  71.1093 351.4673 0036933 317.1532 215.9833 14.21933360 96648
SL-14 R/B               
1 15945U 85069B   25308.79839904  .00000546  00000+0  59257-4 0  9995
2 15945  82.5249 142.3739 0017432 244.3297 115.6119 14.86255901154288
SL-16 R/B               
1 16182U 85097B   25308.73709851 -.00000132  00000+0 -42278-4 0  9999
2 16182  71.0045  43.6071 0005109  84.4766  70.2360 14.16576698 69532
SL-14 R/B               
1 16496U 86006B   25308.60370016  .00000718  00000+0  74193-4 0  9990
2 16496  82.5297  17.4293 0075969 328.3477  31.3181 14.86591590130624
